{"version": 0.6, "generator": "Overpass API 0.7.56.9 76e5016d", "osm3s": {"timestamp_osm_base": "2021-09-19T08:34:43Z", "copyright": "The data included in this document is from www.openstreetmap.org. The data is made available under ODbL."}, "elements": [{"type": "node", "id": 175652782, "lat": 52.5159749, "lon": 13.3776792}, {"type": "node", "id": 175652783, "lat": 52.5165627, "lon": 13.3775726}, {"type": "node", "id": 262454112, "lat": 52.5164741, "lon": 13.378012}, {"type": "node", "id": 262454113, "lat": 52.5164563, "lon": 13.3777518}, {"type": "node", "id": 262454115, "lat": 52.5161196, "lon": 13.378075}, {"type": "node", "id": 262454227, "lat": 52.5165686, "lon": 13.3776597}, {"type": "node", "id": 262518382, "lat": 52.5157489, "lon": 13.3781196}, {"type": "node", "id": 288855821, "lat": 52.5164211, "lon": 13.3775987}, {"type": "node", "id": 288855822, "lat": 52.5164318, "lon": 13.3777563}, {"type": "node", "id": 288855823, "lat": 52.51613, "lon": 13.377825}, {"type": "node", "id": 288855825, "lat": 52.5161176, "lon": 13.3776515}, {"type": "node", "id": 452926330, "lat": 52.5162742, "lon": 13.377607}, {"type": "node", "id": 452926331, "lat": 52.5162867, "lon": 13.3777968}, {"type": "node", "id": 1204401371, "lat": 52.5165856, "lon": 13.3779657}, {"type": "node", "id": 1204401377, "lat": 52.5165722, "lon": 13.3777595}, {"type": "node", "id": 1353852093, "lat": 52.5157339, "lon": 13.3779112}, {"type": "node", "id": 1446976108, "lat": 52.5168218, "lon": 13.3777124}, {"type": "node", "id": 1446976109, "lat": 52.5168334, "lon": 13.3779218}, {"type": "node", "id": 2057305039, "lat": 52.5157441, "lon": 13.3780517}, {"type": "node", "id": 2057305072, "lat": 52.5159826, "lon": 13.377868}, {"type": "node", "id": 2161627988, "lat": 52.5159749, "lon": 13.3778694}, {"type": "node", "id": 2161627991, "lat": 52.5159865, "lon": 13.3778405}, {"type": "node", "id": 2161627993, "lat": 52.5159982, "lon": 13.3780754}, {"type": "node", "id": 2161627995, "lat": 52.516016, "lon": 13.3778347}, {"type": "node", "id": 2161627997, "lat": 52.5160143, "lon": 13.3780954}, {"type": "node", "id": 2161633393, "lat": 52.5165374, "lon": 13.3777575}, {"type": "node", "id": 2161633394, "lat": 52.516536, "lon": 13.3777371}, {"type": "node", "id": 2161633395, "lat": 52.516574, "lon": 13.3779936}, {"type": "node", "id": 2456810950, "lat": 52.5159833, "lon": 13.3778771}, {"type": "node", "id": 2456810951, "lat": 52.5160173, "lon": 13.3778531}, {"type": "node", "id": 2456810968, "lat": 52.5166677, "lon": 13.3777052}, {"type": "node", "id": 2456810970, "lat": 52.5166703, "lon": 13.377741}, {"type": "node", "id": 2456810973, "lat": 52.5167217, "lon": 13.3776948}, {"type": "node", "id": 2456810974, "lat": 52.5167243, "lon": 13.3777308}, {"type": "node", "id": 3258041287, "lat": 52.5166947, "lon": 13.3777, "tags": {"addr:city": "Berlin", "addr:country": "DE", "addr:housenumber": "23", "addr:postcode": "10117", "addr:street": "Ebertstra\u00dfe", "addr:suburb": "Mitte", "source:addr": "Geoportal Berlin / Hauskoordinaten"}}, {"type": "node", "id": 3767874526, "lat": 52.5165576, "lon": 13.3777538}, {"type": "node", "id": 3767874528, "lat": 52.5165734, "lon": 13.3777302}, {"type": "node", "id": 4237710797, "lat": 52.5159972, "lon": 13.377857}, {"type": "node", "id": 4237710798, "lat": 52.5160218, "lon": 13.378094}, {"type": "node", "id": 4868578653, "lat": 52.5161292, "lon": 13.3778127}, {"type": "node", "id": 4868578655, "lat": 52.5161167, "lon": 13.377636}, {"type": "node", "id": 4868578656, "lat": 52.5164325, "lon": 13.3777681}, {"type": "node", "id": 4868578657, "lat": 52.5164198, "lon": 13.37758}, {"type": "node", "id": 5054455420, "lat": 52.5161012, "lon": 13.3778182}, {"type": "node", "id": 8317596696, "lat": 52.5161577, "lon": 13.3776285}, {"type": "node", "id": 8317596697, "lat": 52.5161704, "lon": 13.3778177}, {"type": "node", "id": 8317596700, "lat": 52.5163912, "lon": 13.3777762}, {"type": "node", "id": 8317596701, "lat": 52.5163779, "lon": 13.3775878}, {"type": "way", "id": 38360826, "nodes": [2161627993, 2456810950, 2057305072, 2161627988, 1353852093, 2057305039, 262518382, 2161627993], "tags": {"addr:city": "Berlin", "addr:country": "DE", "addr:housenumber": "1", "addr:postcode": "10117", "addr:street": "Pariser Platz", "addr:suburb": "Mitte", "building": "yes", "building:levels": "4", "name": "Haus Sommer"}}, {"type": "way", "id": 131487807, "nodes": [2456810974, 1446976108, 1446976109, 1204401371, 1204401377, 2456810970, 2456810968, 3258041287, 2456810973, 2456810974], "tags": {"addr:city": "Berlin", "addr:country": "DE", "addr:housenumber": "7", "addr:postcode": "10117", "addr:street": "Pariser Platz", "addr:suburb": "Mitte", "building": "government", "building:levels": "4", "contact:phone": "+49 30 22633030", "name": "Max-Liebermann-Haus", "tourism": "museum", "website": "http://www.stiftung.brandenburgertor.de/stiftung/liebermann_haus", "wheelchair": "yes", "wikidata": "Q100476358"}}, {"type": "way", "id": 206159289, "nodes": [262454113, 288855822, 288855821, 175652783, 262454227, 3767874528, 2161633394, 262454113], "tags": {"architect": "Heinrich Strack", "building": "yes", "building:colour": "#CCCCCC", "description": "S\u00e4ulenhalle", "fixme": "S\u00e4ulen erg\u00e4nzen", "height": "12", "heritage": "yes", "heritage:description": "Baudenkmal", "opening_hours": "24/7", "roof:colour": "green", "roof:height": "1.5", "roof:shape": "gabled", "start_date": "1868"}}, {"type": "way", "id": 375247938, "nodes": [2161627995, 2456810951, 4237710797, 2161627997, 4237710798, 262454115, 5054455420, 2161627995], "tags": {"architect": "Heinrich Strack", "building": "gatehouse", "building:colour": "#CCCCCC", "fixme": "S\u00e4ulen erg\u00e4nzen", "height": "12", "heritage": "yes", "heritage:description": "Baudenkmal", "name": "S\u00fcdliches Torhaus", "roof:colour": "#3A95CB", "roof:height": "1.5", "roof:shape": "gabled", "start_date": "1868"}}, {"type": "way", "id": 518071762, "nodes": [2161633394, 2161633393, 3767874526, 2161633395, 262454112, 262454113, 2161633394], "tags": {"addr:housenumber": "1", "addr:postcode": "10117", "addr:street": "Pariser Platz", "architect": "Heinrich Strack", "building": "gatehouse", "building:colour": "#CCCCCC", "fixme": "S\u00e4ulen erg\u00e4nzen", "height": "12", "heritage": "yes", "heritage:description": "Baudenkmal", "name": "N\u00f6rdliches Torhaus", "opening_hours": "24/7", "roof:colour": "green", "roof:height": "1.5", "roof:shape": "gabled", "start_date": "1868"}}, {"type": "way", "id": 518071779, "nodes": [5054455420, 4868578653, 288855825, 175652782, 2161627991, 2161627995, 5054455420], "tags": {"architect": "Heinrich Strack", "building": "yes", "building:colour": "#CCCCCC", "description": "S\u00e4ulenhalle", "fixme": "S\u00e4ulen erg\u00e4nzen", "height": "12", "heritage": "yes", "heritage:description": "Baudenkmal", "roof:colour": "#3A95CB", "roof:height": "1.5", "roof:shape": "gabled", "start_date": "1868"}}, {"type": "way", "id": 518071791, "nodes": [288855822, 4868578656, 8317596700, 452926331, 8317596697, 288855823, 4868578653, 288855825, 4868578655, 8317596696, 452926330, 8317596701, 4868578657, 288855821, 288855822], "tags": {"addr:city": "Berlin", "addr:country": "DE", "addr:housenumber": "1", "addr:postcode": "10117", "addr:street": "Pariser Platz", "addr:suburb": "Mitte", "alt_name:cs": "Brandenbursk\u00e1 br\u00e1na", "architect": "Carl Gotthard Langhans", "architect:wikidata": "Q313181", "architect:wikipedia": "de:Carl Gotthard Langhans", "building": "yes", "construction:start_date": "1788", "contact:tripadvisor": "https://www.tripadvisor.com/Attraction_Review-g187323-d190518-Reviews-Brandenburg_Gate-Berlin.html", "direction": "W", "heritage": "4", "heritage:description": "Baudenkmal", "heritage:operator": "lda", "heritage:website": "https://www.berlin.de/landesdenkmalamt/denkmale/liste-karte-datenbank/denkmaldatenbank/daobj.php?obj_dok_nr=09065019", "historic": "monument", "image": "http://upload.wikimedia.org/wikipedia/commons/7/71/Brandenburger_Tor_2005_006.JPG", "lda:criteria": "Baudenkmal", "name": "Brandenburger Tor", "name:be": "\u0411\u0440\u0430\u043d\u0434\u044d\u043d\u0431\u0443\u0440\u0433\u0441\u043a\u0430\u044f \u0431\u0440\u0430\u043c\u0430", "name:bg": "\u0411\u0440\u0430\u043d\u0434\u0435\u043d\u0431\u0443\u0440\u0433\u0441\u043a\u0430 \u0432\u0440\u0430\u0442\u0430", "name:cs": "Braniborsk\u00e1 br\u00e1na", "name:de": "Brandenburger Tor", "name:el": "\u03a0\u03cd\u03bb\u03b7 \u03c4\u03bf\u03c5 \u0392\u03c1\u03b1\u03bd\u03b4\u03b5\u03bc\u03b2\u03bf\u03cd\u03c1\u03b3\u03bf\u03c5", "name:en": "Brandenburg Gate", "name:es": "Puerta de Brandeburgo", "name:et": "Brandenburgi v\u00e4rav", "name:fi": "Brandenburgin portti", "name:fr": "Porte de Brandebourg", "name:he": "\u05e9\u05e2\u05e8 \u05d1\u05e8\u05e0\u05d3\u05e0\u05d1\u05d5\u05e8\u05d2", "name:hr": "Brandenbur\u0161ka vrata", "name:hu": "Brandenburgi kapu", "name:is": "Brandenborgarhli\u00f0i\u00f0", "name:it": "Porta di Brandeburgo", "name:ja": "\u30d6\u30e9\u30f3\u30c7\u30f3\u30d6\u30eb\u30af\u9580", "name:ko": "\ube0c\ub780\ub374\ubd80\ub974\ud06c \ubb38", "name:la": "Porta Brandenburgensis", "name:lt": "Brandenburgo vartai", "name:lv": "Brandenburgas v\u0101rti", "name:nl": "Brandenburger Poort", "name:pl": "Brama Brandenburska", "name:pt": "Port\u00e3o de Brandemburgo", "name:ro": "Poarta Brandenburg", "name:ru": "\u0411\u0440\u0430\u043d\u0434\u0435\u043d\u0431\u0443\u0440\u0433\u0441\u043a\u0438\u0435 \u0432\u043e\u0440\u043e\u0442\u0430", "name:sh": "Brandenbur\u0161ka vrata", "name:sk": "Brandenbursk\u00e1 br\u00e1na", "name:sl": "Brandenbur\u0161ka vrata", "name:sr": "\u0411\u0440\u0430\u043d\u0434\u0435\u043d\u0431\u0443\u0440\u0448\u043a\u0430 \u043a\u0430\u043f\u0438\u0458\u0430", "name:tr": "Brandenburg Kap\u0131s\u0131", "name:zh": "\u5e03\u862d\u767b\u5821\u9580", "opening_hours": "24/7", "ref:lda": "09065019", "start_date": "1791", "tourism": "attraction", "website": "http://www.berlin.de/orte/sehenswuerdigkeiten/brandenburger-tor/", "wheelchair": "yes", "wikidata": "Q82425", "wikimedia_commons": "File:Brandenburger Tor 2005 006.JPG", "wikipedia": "de:Brandenburger Tor"}}]}